IRIDIUM 171             
1 43929U 19002H   25035.50249348  .00000431  00000+0  14676-3 0  9993
2 43929  86.3998 201.7813 0002343  84.6909 275.4555 14.34216486317623
IRIDIUM 170             
1 43930U 19002J   25035.50560066  .00001908  00000+0  29875-3 0  9995
2 43930  86.6108 201.5570 0001874  94.3323 265.8108 14.72236874326032
IRIDIUM 167             
1 43931U 19002K   25035.84498830  .00000493  00000+0  16886-3 0  9998
2 43931  86.3990 201.4054 0002433  93.6424 266.5050 14.34219384317670
IRIDIUM 181             
1 56726U 23068S   25035.18279548  .00000677  00000+0  19524-3 0  9997
2 56726  86.4471 264.8037 0002507  80.6337 279.5147 14.43300463 90607
IRIDIUM 177             
1 56727U 23068T   25035.50436766  .00001259  00000+0  16219-3 0  9996
2 56727  86.1983 205.0483 0001922  95.9014 264.2426 14.80250784 92745
IRIDIUM 174             
1 56728U 23068U   25035.49892010  .00001263  00000+0  16278-3 0  9993
2 56728  86.1988 205.1728 0002215  83.8994 276.2480 14.80227258 92746
IRIDIUM 178             
1 56729U 23068V   25035.49351214  .00001045  00000+0  13410-3 0  9993
2 56729  86.5749 233.6214 0002645  69.3192 290.8313 14.80231216 92744
IRIDIUM 179             
1 56730U 23068W   25035.48807950  .00000991  00000+0  12694-3 0  9999
2 56730  86.6753 240.6815 0002148  82.9730 277.1736 14.80233718 92740
